[{"OBJECT_NAME":"ORBCOMM FM109","OBJECT_ID":"2014-040A","EPOCH":"2026-03-09T20:32:40.283520","MEAN_MOTION":14.58723838,"ECCENTRICITY":0.00013699,"INCLINATION":47.0026,"RA_OF_ASC_NODE":201.0749,"ARG_OF_PERICENTER":153.2814,"MEAN_ANOMALY":206.8143,"EPHEMERIS_TYPE":0,"CLASSIFICATION_TYPE":"U","NORAD_CAT_ID":40086,"ELEMENT_SET_NO":999,"REV_AT_EPOCH":61984,"BSTAR":0.00020185652,"MEAN_MOTION_DOT":7.8e-6,"MEAN_MOTION_DDOT":0},{"OBJECT_NAME":"CZ-6A DEB","OBJECT_ID":"2022-151JU","EPOCH":"2026-03-09T23:26:06.405792","MEAN_MOTION":14.42755254,"ECCENTRICITY":0.0134432,"INCLINATION":98.5549,"RA_OF_ASC_NODE":99.6779,"ARG_OF_PERICENTER":279.9897,"MEAN_ANOMALY":78.6144,"EPHEMERIS_TYPE":0,"CLASSIFICATION_TYPE":"U","NORAD_CAT_ID":54516,"ELEMENT_SET_NO":999,"REV_AT_EPOCH":17446,"BSTAR":0.00036620015,"MEAN_MOTION_DOT":1.309e-5,"MEAN_MOTION_DDOT":0}]
